start=new Date('2022-02-03T00:00:00.000Z').valueOf();
sats=[{"RCS_SIZE":"LARGE","TLE_LINE2":"2 51145  53.2172 200.8838 0001142  70.9029  95.4232 15.78397433  2807","COUNTRY_CODE":"US","MEAN_MOTION_DDOT":"0.0000000000000","ECCENTRICITY":"0.00011420","MEAN_MOTION":"15.78397433","CENTER_NAME":"EARTH","LAUNCH_DATE":"2022-01-19","ARG_OF_PERICENTER":"70.9029","PERIAPSIS":"334.216","SITE":"AFETR","MEAN_ANOMALY":"95.4232","MEAN_MOTION_DOT":"-0.00811272","BSTAR":"-0.00505100000000","OBJECT_ID":"2022-005AT","OBJECT_NAME":"STARLINK-3365","EPOCH":"2022-02-02T22:00:00.999936","TIME_SYSTEM":"UTC","PERIOD":"91.232","REF_FRAME":"TEME","APOAPSIS":"335.749","ELEMENT_SET_NO":"999","CLASSIFICATION_TYPE":"U","NORAD_CAT_ID":"51145","EPHEMERIS_TYPE":"0","REV_AT_EPOCH":"280","RA_OF_ASC_NODE":"200.8838","GP_ID":"195195389","MEAN_ELEMENT_THEORY":"SGP4","TLE_LINE1":"1 51145U 22005AT  22033.91667824 -.00811272  00000-0 -50510-2 0  9994","DECAY_DATE":null,"FILE":"3290513","OBJECT_TYPE":"PAYLOAD","SEMIMAJOR_AXIS":"6713.118","INCLINATION":"53.2172"},{"RA_OF_ASC_NODE":"200.8915","REV_AT_EPOCH":"280","MEAN_ELEMENT_THEORY":"SGP4","GP_ID":"195195850","NORAD_CAT_ID":"51146","EPHEMERIS_TYPE":"0","OBJECT_TYPE":"PAYLOAD","SEMIMAJOR_AXIS":"6713.329","INCLINATION":"53.2172","FILE":"3290513","DECAY_DATE":null,"TLE_LINE1":"1 51146U 22005AU  22033.91667824 -.00811284  00000-0 -50681-2 0  9997","CENTER_NAME":"EARTH","ARG_OF_PERICENTER":"69.2424","LAUNCH_DATE":"2022-01-19","TLE_LINE2":"2 51146  53.2172 200.8915 0001161  69.2424  93.4581 15.78323092  2800","RCS_SIZE":"MEDIUM","MEAN_MOTION":"15.78323092","ECCENTRICITY":"0.00011610","MEAN_MOTION_DDOT":"0.0000000000000","COUNTRY_CODE":"US","ELEMENT_SET_NO":"999","APOAPSIS":"335.973","REF_FRAME":"TEME","PERIOD":"91.236","CLASSIFICATION_TYPE":"U","SITE":"AFETR","PERIAPSIS":"334.414","TIME_SYSTEM":"UTC","EPOCH":"2022-02-02T22:00:00.999936","OBJECT_NAME":"STARLINK-3354","OBJECT_ID":"2022-005AU","MEAN_MOTION_DOT":"-0.00811284","MEAN_ANOMALY":"93.4581","BSTAR":"-0.00506810000000"},{"CLASSIFICATION_TYPE":"U","APOAPSIS":"335.799","ELEMENT_SET_NO":"999","PERIOD":"91.233","REF_FRAME":"TEME","TIME_SYSTEM":"UTC","EPOCH":"2022-02-02T22:00:00.999936","MEAN_MOTION_DOT":"-0.00811372","BSTAR":"-0.00505730000000","MEAN_ANOMALY":"84.3266","OBJECT_ID":"2022-005AV","OBJECT_NAME":"STARLINK-3352","SITE":"AFETR","PERIAPSIS":"334.304","LAUNCH_DATE":"2022-01-19","ARG_OF_PERICENTER":"80.9974","CENTER_NAME":"EARTH","ECCENTRICITY":"0.00011140","MEAN_MOTION":"15.78373171","COUNTRY_CODE":"US","MEAN_MOTION_DDOT":"0.0000000000000","TLE_LINE2":"2 51147  53.2172 200.8859 0001114  80.9974  84.3266 15.78373171  2808","RCS_SIZE":"MEDIUM","INCLINATION":"53.2172","SEMIMAJOR_AXIS":"6713.187","OBJECT_TYPE":"PAYLOAD","FILE":"3290513","TLE_LINE1":"1 51147U 22005AV  22033.91667824 -.00811372  00000-0 -50573-2 0  9996","DECAY_DATE":null,"MEAN_ELEMENT_THEORY":"SGP4","GP_ID":"195195773","RA_OF_ASC_NODE":"200.8859","REV_AT_EPOCH":"280","EPHEMERIS_TYPE":"0","NORAD_CAT_ID":"51147"},{"LAUNCH_DATE":"2022-01-19","ARG_OF_PERICENTER":"82.6222","CENTER_NAME":"EARTH","ECCENTRICITY":"0.00011250","MEAN_MOTION":"15.78405570","COUNTRY_CODE":"US","MEAN_MOTION_DDOT":"0.0000000000000","RCS_SIZE":"LARGE","TLE_LINE2":"2 51148  53.2172 200.8828 0001125  82.6222  84.2479 15.78405570  2806","CLASSIFICATION_TYPE":"U","APOAPSIS":"335.715","ELEMENT_SET_NO":"999","PERIOD":"91.231","REF_FRAME":"TEME","TIME_SYSTEM":"UTC","EPOCH":"2022-02-02T22:00:00.999936","MEAN_MOTION_DOT":"-0.00811350","MEAN_ANOMALY":"84.2479","BSTAR":"-0.00504970000000","OBJECT_NAME":"STARLINK-3359","OBJECT_ID":"2022-005AW","SITE":"AFETR","PERIAPSIS":"334.204","MEAN_ELEMENT_THEORY":"SGP4","GP_ID":"195195620","RA_OF_ASC_NODE":"200.8828","REV_AT_EPOCH":"280","NORAD_CAT_ID":"51148","EPHEMERIS_TYPE":"0","INCLINATION":"53.2172","SEMIMAJOR_AXIS":"6713.095","OBJECT_TYPE":"PAYLOAD","FILE":"3290513","TLE_LINE1":"1 51148U 22005AW  22033.91667824 -.00811350  00000-0 -50497-2 0  9998","DECAY_DATE":null},{"RA_OF_ASC_NODE":"200.8816","REV_AT_EPOCH":"280","MEAN_ELEMENT_THEORY":"SGP4","GP_ID":"195195696","EPHEMERIS_TYPE":"0","NORAD_CAT_ID":"51149","OBJECT_TYPE":"PAYLOAD","INCLINATION":"53.2172","SEMIMAJOR_AXIS":"6713.067","FILE":"3290513","DECAY_DATE":null,"TLE_LINE1":"1 51149U 22005AX  22033.91667824 -.00811353  00000-0 -50475-2 0  9998","CENTER_NAME":"EARTH","ARG_OF_PERICENTER":"76.4987","LAUNCH_DATE":"2022-01-19","RCS_SIZE":"MEDIUM","TLE_LINE2":"2 51149  53.2172 200.8816 0001123  76.4987  90.8980 15.78415276  2805","MEAN_MOTION":"15.78415276","ECCENTRICITY":"0.00011230","MEAN_MOTION_DDOT":"0.0000000000000","COUNTRY_CODE":"US","ELEMENT_SET_NO":"999","APOAPSIS":"335.686","REF_FRAME":"TEME","PERIOD":"91.231","CLASSIFICATION_TYPE":"U","SITE":"AFETR","PERIAPSIS":"334.178","EPOCH":"2022-02-02T22:00:00.999936","TIME_SYSTEM":"UTC","OBJECT_NAME":"STARLINK-3360","OBJECT_ID":"2022-005AX","BSTAR":"-0.00504750000000","MEAN_MOTION_DOT":"-0.00811353","MEAN_ANOMALY":"90.8980"},{"REV_AT_EPOCH":"280","RA_OF_ASC_NODE":"200.8872","GP_ID":"195195543","MEAN_ELEMENT_THEORY":"SGP4","NORAD_CAT_ID":"51150","EPHEMERIS_TYPE":"0","OBJECT_TYPE":"PAYLOAD","INCLINATION":"53.2172","SEMIMAJOR_AXIS":"6713.213","TLE_LINE1":"1 51150U 22005AY  22033.91667824 -.00811293  00000-0 -50589-2 0  9999","DECAY_DATE":null,"FILE":"3290513","CENTER_NAME":"EARTH","LAUNCH_DATE":"2022-01-19","ARG_OF_PERICENTER":"72.1099","RCS_SIZE":"LARGE","TLE_LINE2":"2 51150  53.2172 200.8872 0001128  72.1099  92.6835 15.78363711  2806","COUNTRY_CODE":"US","MEAN_MOTION_DDOT":"0.0000000000000","ECCENTRICITY":"0.00011280","MEAN_MOTION":"15.78363711","PERIOD":"91.234","REF_FRAME":"TEME","APOAPSIS":"335.836","ELEMENT_SET_NO":"999","CLASSIFICATION_TYPE":"U","PERIAPSIS":"334.321","SITE":"AFETR","MEAN_MOTION_DOT":"-0.00811293","BSTAR":"-0.00505890000000","MEAN_ANOMALY":"92.6835","OBJECT_NAME":"STARLINK-3357","OBJECT_ID":"2022-005AY","EPOCH":"2022-02-02T22:00:00.999936","TIME_SYSTEM":"UTC"},{"EPHEMERIS_TYPE":"0","NORAD_CAT_ID":"51151","GP_ID":"195195466","MEAN_ELEMENT_THEORY":"SGP4","REV_AT_EPOCH":"280","RA_OF_ASC_NODE":"200.8794","DECAY_DATE":null,"TLE_LINE1":"1 51151U 22005AZ  22033.91667824 -.00810936  00000-0 -50396-2 0  9999","FILE":"3290513","SEMIMAJOR_AXIS":"6713.007","INCLINATION":"53.2172","OBJECT_TYPE":"PAYLOAD","MEAN_MOTION_DDOT":"0.0000000000000","COUNTRY_CODE":"US","MEAN_MOTION":"15.78436348","ECCENTRICITY":"0.00012410","TLE_LINE2":"2 51151  53.2172 200.8794 0001241  80.1045  88.3243 15.78436348  2808","RCS_SIZE":"MEDIUM","ARG_OF_PERICENTER":"80.1045","LAUNCH_DATE":"2022-01-19","CENTER_NAME":"EARTH","OBJECT_NAME":"STARLINK-3361","OBJECT_ID":"2022-005AZ","MEAN_MOTION_DOT":"-0.00810936","BSTAR":"-0.00503960000000","MEAN_ANOMALY":"88.3243","EPOCH":"2022-02-02T22:00:00.999936","TIME_SYSTEM":"UTC","PERIAPSIS":"334.039","SITE":"AFETR","CLASSIFICATION_TYPE":"U","REF_FRAME":"TEME","PERIOD":"91.230","ELEMENT_SET_NO":"999","APOAPSIS":"335.705"},{"RA_OF_ASC_NODE":"200.8807","REV_AT_EPOCH":"280","MEAN_ELEMENT_THEORY":"SGP4","GP_ID":"195195927","EPHEMERIS_TYPE":"0","NORAD_CAT_ID":"51152","OBJECT_TYPE":"PAYLOAD","INCLINATION":"53.2172","SEMIMAJOR_AXIS":"6713.039","FILE":"3290513","DECAY_DATE":null,"TLE_LINE1":"1 51152U 22005BA  22033.91667824 -.00811308  00000-0 -50449-2 0  9993","CENTER_NAME":"EARTH","ARG_OF_PERICENTER":"77.2726","LAUNCH_DATE":"2022-01-19","RCS_SIZE":"MEDIUM","TLE_LINE2":"2 51152  53.2172 200.8807 0001131  77.2726  90.6480 15.78425203  2802","MEAN_MOTION":"15.78425203","ECCENTRICITY":"0.00011310","MEAN_MOTION_DDOT":"0.0000000000000","COUNTRY_CODE":"US","ELEMENT_SET_NO":"999","APOAPSIS":"335.663","REF_FRAME":"TEME","PERIOD":"91.230","CLASSIFICATION_TYPE":"U","SITE":"AFETR","PERIAPSIS":"334.145","EPOCH":"2022-02-02T22:00:00.999936","TIME_SYSTEM":"UTC","OBJECT_NAME":"STARLINK-3364","OBJECT_ID":"2022-005BA","MEAN_MOTION_DOT":"-0.00811308","MEAN_ANOMALY":"90.6480","BSTAR":"-0.00504490000000"}];
